start=new Date('2022-08-27T00:00:00.000Z').valueOf();
sats=[{"MEAN_MOTION_DDOT":"0.0000000000000","EPHEMERIS_TYPE":"0","RA_OF_ASC_NODE":"236.9871","GP_ID":"211076458","TLE_LINE2":"2 48487  53.0534 236.9871 0001577  61.0774 299.0373 15.06386713 71779","INCLINATION":"53.0534","OBJECT_NAME":"STARLINK-2494","MEAN_MOTION_DOT":"-0.00000678","SEMIMAJOR_AXIS":"6925.389","NORAD_CAT_ID":"48487","BSTAR":"-0.00002661800000","LAUNCH_DATE":"2021-05-09","ARG_OF_PERICENTER":"61.0774","COUNTRY_CODE":"US","TLE_LINE1":"1 48487U 21040BM  22238.72361480 -.00000678  00000-0 -26618-4 0  9996","RCS_SIZE":"LARGE","PERIAPSIS":"546.162","REV_AT_EPOCH":"7177","OBJECT_ID":"2021-040BM","CENTER_NAME":"EARTH","APOAPSIS":"548.346","ECCENTRICITY":"0.00015770","OBJECT_TYPE":"PAYLOAD","REF_FRAME":"TEME","MEAN_MOTION":"15.06386713","CLASSIFICATION_TYPE":"U","EPOCH":"2022-08-26T17:22:00.318720","TIME_SYSTEM":"UTC","PERIOD":"95.593","ELEMENT_SET_NO":"999","FILE":"3548620","DECAY_DATE":null,"SITE":"AFETR","MEAN_ANOMALY":"299.0373","MEAN_ELEMENT_THEORY":"SGP4"},{"SEMIMAJOR_AXIS":"6925.349","MEAN_MOTION_DOT":"-0.00000249","INCLINATION":"53.0539","OBJECT_NAME":"STARLINK-2063","NORAD_CAT_ID":"48553","GP_ID":"211076966","EPHEMERIS_TYPE":"0","RA_OF_ASC_NODE":"166.7958","MEAN_MOTION_DDOT":"0.0000000000000","TLE_LINE2":"2 48553  53.0539 166.7958 0001674  64.6805 295.4357 15.06399885 70636","OBJECT_ID":"2021-041A","PERIAPSIS":"546.055","REV_AT_EPOCH":"7063","RCS_SIZE":"LARGE","LAUNCH_DATE":"2021-05-15","BSTAR":"0.00000215570000","TLE_LINE1":"1 48553U 21041A   22238.76690592 -.00000249  00000-0  21557-5 0  9995","COUNTRY_CODE":"US","ARG_OF_PERICENTER":"64.6805","MEAN_MOTION":"15.06399885","REF_FRAME":"TEME","EPOCH":"2022-08-26T18:24:20.671488","CLASSIFICATION_TYPE":"U","APOAPSIS":"548.373","CENTER_NAME":"EARTH","ECCENTRICITY":"0.00016740","OBJECT_TYPE":"PAYLOAD","MEAN_ANOMALY":"295.4357","FILE":"3548620","DECAY_DATE":null,"SITE":"AFETR","MEAN_ELEMENT_THEORY":"SGP4","TIME_SYSTEM":"UTC","ELEMENT_SET_NO":"999","PERIOD":"95.592"},{"MEAN_MOTION":"15.06405714","REF_FRAME":"TEME","EPOCH":"2022-08-26T04:15:06.541920","CLASSIFICATION_TYPE":"U","APOAPSIS":"548.198","CENTER_NAME":"EARTH","ECCENTRICITY":"0.00014470","OBJECT_TYPE":"PAYLOAD","SITE":"AFETR","FILE":"3547955","DECAY_DATE":null,"MEAN_ANOMALY":"274.0810","MEAN_ELEMENT_THEORY":"SGP4","TIME_SYSTEM":"UTC","ELEMENT_SET_NO":"999","PERIOD":"95.592","MEAN_MOTION_DOT":"0.00000366","SEMIMAJOR_AXIS":"6925.331","INCLINATION":"53.0535","OBJECT_NAME":"STARLINK-2139","NORAD_CAT_ID":"48554","GP_ID":"211015654","MEAN_MOTION_DDOT":"0.0000000000000","EPHEMERIS_TYPE":"0","RA_OF_ASC_NODE":"169.4525","TLE_LINE2":"2 48554  53.0535 169.4525 0001447  86.0345 274.0810 15.06405714 70948","REV_AT_EPOCH":"7094","PERIAPSIS":"546.194","OBJECT_ID":"2021-041B","RCS_SIZE":"LARGE","BSTAR":"0.00004348200000","LAUNCH_DATE":"2021-05-15","TLE_LINE1":"1 48554U 21041B   22238.17715905  .00000366  00000-0  43482-4 0  9996","COUNTRY_CODE":"US","ARG_OF_PERICENTER":"86.0345"},{"LAUNCH_DATE":"2021-05-15","BSTAR":"0.00001064900000","ARG_OF_PERICENTER":"65.4699","COUNTRY_CODE":"US","TLE_LINE1":"1 48555U 21041C   22238.27208201 -.00000123  00000-0  10649-4 0  9995","RCS_SIZE":"LARGE","REV_AT_EPOCH":"7041","PERIAPSIS":"546.104","OBJECT_ID":"2021-041C","EPHEMERIS_TYPE":"0","RA_OF_ASC_NODE":"179.0240","MEAN_MOTION_DDOT":"0.0000000000000","GP_ID":"211047690","TLE_LINE2":"2 48555  53.0546 179.0240 0001649  65.4699 294.6461 15.06389263 70411","INCLINATION":"53.0546","OBJECT_NAME":"STARLINK-2145","SEMIMAJOR_AXIS":"6925.381","MEAN_MOTION_DOT":"-0.00000123","NORAD_CAT_ID":"48555","TIME_SYSTEM":"UTC","PERIOD":"95.593","ELEMENT_SET_NO":"999","MEAN_ANOMALY":"294.6461","DECAY_DATE":null,"FILE":"3548418","SITE":"AFETR","MEAN_ELEMENT_THEORY":"SGP4","CENTER_NAME":"EARTH","APOAPSIS":"548.388","OBJECT_TYPE":"PAYLOAD","ECCENTRICITY":"0.00016490","REF_FRAME":"TEME","MEAN_MOTION":"15.06389263","CLASSIFICATION_TYPE":"U","EPOCH":"2022-08-26T06:31:47.885664"},{"REV_AT_EPOCH":"7050","PERIAPSIS":"546.040","OBJECT_ID":"2021-041D","RCS_SIZE":"LARGE","TLE_LINE1":"1 48556U 21041D   22238.85813187 -.00000550  00000-0 -17985-4 0  9990","COUNTRY_CODE":"US","ARG_OF_PERICENTER":"64.6267","BSTAR":"-0.00001798500000","LAUNCH_DATE":"2021-05-15","NORAD_CAT_ID":"48556","MEAN_MOTION_DOT":"-0.00000550","SEMIMAJOR_AXIS":"6925.327","OBJECT_NAME":"STARLINK-2151","INCLINATION":"53.0535","TLE_LINE2":"2 48556  53.0535 176.3970 0001663  64.6267 295.4894 15.06407082 70507","GP_ID":"211078211","MEAN_MOTION_DDOT":"0.0000000000000","EPHEMERIS_TYPE":"0","RA_OF_ASC_NODE":"176.3970","MEAN_ELEMENT_THEORY":"SGP4","DECAY_DATE":null,"FILE":"3548620","SITE":"AFETR","MEAN_ANOMALY":"295.4894","ELEMENT_SET_NO":"999","PERIOD":"95.592","TIME_SYSTEM":"UTC","EPOCH":"2022-08-26T20:35:42.593568","CLASSIFICATION_TYPE":"U","REF_FRAME":"TEME","MEAN_MOTION":"15.06407082","OBJECT_TYPE":"PAYLOAD","ECCENTRICITY":"0.00016630","APOAPSIS":"548.344","CENTER_NAME":"EARTH"},{"TIME_SYSTEM":"UTC","ELEMENT_SET_NO":"999","PERIOD":"95.593","FILE":"3548418","DECAY_DATE":null,"SITE":"AFETR","MEAN_ANOMALY":"264.3461","MEAN_ELEMENT_THEORY":"SGP4","APOAPSIS":"548.328","CENTER_NAME":"EARTH","OBJECT_TYPE":"PAYLOAD","ECCENTRICITY":"0.00015670","REF_FRAME":"TEME","MEAN_MOTION":"15.06390553","EPOCH":"2022-08-26T03:11:24.988704","CLASSIFICATION_TYPE":"U","BSTAR":"0.00019810000000","LAUNCH_DATE":"2021-05-15","COUNTRY_CODE":"US","TLE_LINE1":"1 48557U 21041E   22238.13292811  .00002670  00000-0  19810-3 0  9998","ARG_OF_PERICENTER":"95.7706","REV_AT_EPOCH":"7053","PERIAPSIS":"546.157","OBJECT_ID":"2021-041E","RCS_SIZE":"LARGE","GP_ID":"211046689","MEAN_MOTION_DDOT":"0.0000000000000","EPHEMERIS_TYPE":"0","RA_OF_ASC_NODE":"169.6409","TLE_LINE2":"2 48557  53.0529 169.6409 0001567  95.7706 264.3461 15.06390553 70531","MEAN_MOTION_DOT":"0.00002670","SEMIMAJOR_AXIS":"6925.378","OBJECT_NAME":"STARLINK-2155","INCLINATION":"53.0529","NORAD_CAT_ID":"48557"},{"ELEMENT_SET_NO":"999","PERIOD":"95.592","TIME_SYSTEM":"UTC","MEAN_ELEMENT_THEORY":"SGP4","SITE":"AFETR","FILE":"3548581","DECAY_DATE":null,"MEAN_ANOMALY":"274.1240","OBJECT_TYPE":"PAYLOAD","ECCENTRICITY":"0.00015790","APOAPSIS":"548.311","CENTER_NAME":"EARTH","EPOCH":"2022-08-26T19:01:29.378496","CLASSIFICATION_TYPE":"U","REF_FRAME":"TEME","MEAN_MOTION":"15.06398705","TLE_LINE1":"1 48558U 21041F   22238.79270114  .00001704  00000-0  13327-3 0  9997","COUNTRY_CODE":"US","ARG_OF_PERICENTER":"85.9930","BSTAR":"0.00013327000000","LAUNCH_DATE":"2021-05-15","PERIAPSIS":"546.124","REV_AT_EPOCH":"7103","OBJECT_ID":"2021-041F","RCS_SIZE":"LARGE","TLE_LINE2":"2 48558  53.0548 166.6907 0001579  85.9930 274.1240 15.06398705 71033","GP_ID":"211055483","MEAN_MOTION_DDOT":"0.0000000000000","RA_OF_ASC_NODE":"166.6907","EPHEMERIS_TYPE":"0","NORAD_CAT_ID":"48558","MEAN_MOTION_DOT":"0.00001704","SEMIMAJOR_AXIS":"6925.353","INCLINATION":"53.0548","OBJECT_NAME":"STARLINK-2166"},{"BSTAR":"0.00005683500000","LAUNCH_DATE":"2021-05-15","COUNTRY_CODE":"US","TLE_LINE1":"1 48559U 21041G   22238.89498071  .00000565  00000-0  56835-4 0  9999","ARG_OF_PERICENTER":"66.9498","PERIAPSIS":"546.188","OBJECT_ID":"2021-041G","REV_AT_EPOCH":"7064","RCS_SIZE":"LARGE","GP_ID":"211077968","MEAN_MOTION_DDOT":"0.0000000000000","EPHEMERIS_TYPE":"0","RA_OF_ASC_NODE":"166.2194","TLE_LINE2":"2 48559  53.0549 166.2194 0001520  66.9498 293.1651 15.06391233 70645","MEAN_MOTION_DOT":"0.00000565","SEMIMAJOR_AXIS":"6925.375","INCLINATION":"53.0549","OBJECT_NAME":"STARLINK-2167","NORAD_CAT_ID":"48559","TIME_SYSTEM":"UTC","ELEMENT_SET_NO":"999","PERIOD":"95.593","FILE":"3548620","SITE":"AFETR","DECAY_DATE":null,"MEAN_ANOMALY":"293.1651","MEAN_ELEMENT_THEORY":"SGP4","APOAPSIS":"548.293","CENTER_NAME":"EARTH","OBJECT_TYPE":"PAYLOAD","ECCENTRICITY":"0.00015200","MEAN_MOTION":"15.06391233","REF_FRAME":"TEME","EPOCH":"2022-08-26T21:28:46.333344","CLASSIFICATION_TYPE":"U"},{"TIME_SYSTEM":"UTC","ELEMENT_SET_NO":"999","PERIOD":"95.592","FILE":"3548620","DECAY_DATE":null,"SITE":"AFETR","MEAN_ANOMALY":"273.7834","MEAN_ELEMENT_THEORY":"SGP4","APOAPSIS":"548.261","CENTER_NAME":"EARTH","OBJECT_TYPE":"PAYLOAD","ECCENTRICITY":"0.00015000","MEAN_MOTION":"15.06397180","REF_FRAME":"TEME","EPOCH":"2022-08-26T21:50:04.966944","CLASSIFICATION_TYPE":"U","BSTAR":"0.00005064800000","LAUNCH_DATE":"2021-05-15","COUNTRY_CODE":"US","TLE_LINE1":"1 48561U 21041J   22238.90977971  .00000473  00000-0  50648-4 0  9999","ARG_OF_PERICENTER":"86.3327","PERIAPSIS":"546.183","OBJECT_ID":"2021-041J","REV_AT_EPOCH":"7107","RCS_SIZE":"LARGE","GP_ID":"211077711","MEAN_MOTION_DDOT":"0.0000000000000","EPHEMERIS_TYPE":"0","RA_OF_ASC_NODE":"136.4306","TLE_LINE2":"2 48561  53.0543 136.4306 0001500  86.3327 273.7834 15.06397180 71073","MEAN_MOTION_DOT":"0.00000473","SEMIMAJOR_AXIS":"6925.357","INCLINATION":"53.0543","OBJECT_NAME":"STARLINK-2186","NORAD_CAT_ID":"48561"},{"TLE_LINE2":"2 48562  53.0544 167.3727 0001651  84.4080 275.7097 15.06396358 70615","EPHEMERIS_TYPE":"0","RA_OF_ASC_NODE":"167.3727","MEAN_MOTION_DDOT":"0.0000000000000","GP_ID":"211076967","NORAD_CAT_ID":"48562","INCLINATION":"53.0544","OBJECT_NAME":"STARLINK-2187","SEMIMAJOR_AXIS":"6925.360","MEAN_MOTION_DOT":"0.00000066","ARG_OF_PERICENTER":"84.4080","TLE_LINE1":"1 48562U 21041K   22238.63790309  .00000066  00000-0  23311-4 0  9993","COUNTRY_CODE":"US","LAUNCH_DATE":"2021-05-15","BSTAR":"0.00002331100000","RCS_SIZE":"LARGE","REV_AT_EPOCH":"7061","PERIAPSIS":"546.081","OBJECT_ID":"2021-041K","ECCENTRICITY":"0.00016510","OBJECT_TYPE":"PAYLOAD","CENTER_NAME":"EARTH","APOAPSIS":"548.368","CLASSIFICATION_TYPE":"U","EPOCH":"2022-08-26T15:18:34.826976","REF_FRAME":"TEME","MEAN_MOTION":"15.06396358","PERIOD":"95.592","ELEMENT_SET_NO":"999","TIME_SYSTEM":"UTC","MEAN_ELEMENT_THEORY":"SGP4","MEAN_ANOMALY":"275.7097","SITE":"AFETR","FILE":"3548620","DECAY_DATE":null}];
